{
  "type": "FeatureCollection",
  "features": [
    {
      "type": "Feature",
      "properties": {
        "norad_id": 40376,
        "name": "SMAP",
        "group": "resource",
        "lat": 66.10414714051205,
        "lon": -19.511445563517047,
        "alt_km": 675.1163822682229,
        "timestamp": "2025-12-20T16:47:35.948612+00:00",
        "meta_object_name": "SMAP",
        "meta_object_id": "2015-003A",
        "meta_epoch": "2025-12-20T11:33:47.119104",
        "meta_mean_motion": 14.6335396,
        "meta_eccentricity": 0.0001228,
        "meta_inclination": 98.1288,
        "meta_ra_of_asc_node": 359.094,
        "meta_arg_of_pericenter": 91.4274,
        "meta_mean_anomaly": 268.7069,
        "meta_ephemeris_type": 0,
        "meta_classification_type": "U",
        "meta_norad_cat_id": 40376,
        "meta_element_set_no": 999,
        "meta_rev_at_epoch": 58148,
        "meta_bstar": 8.1744e-05,
        "meta_mean_motion_dot": 3.75e-06,
        "meta_mean_motion_ddot": 0,
        "tle_line1": "1 40376U 15003A   25354.48179536  .00000375  00000+0  81744-4 0  9993",
        "tle_line2": "2 40376  98.1288 359.0940 0001228  91.4274 268.7069 14.63353960581482"
      },
      "geometry": {
        "type": "Point",
        "coordinates": [
          -19.511445563517047,
          66.10414714051205
        ]
      }
    },
    {
      "type": "Feature",
      "properties": {
        "norad_id": 40536,
        "name": "KOMPSAT-3A",
        "group": "resource",
        "lat": -82.27905494218757,
        "lon": 65.08176710356662,
        "alt_km": 444.53227369733486,
        "timestamp": "2025-12-20T16:47:35.948622+00:00",
        "meta_object_name": "KOMPSAT-3A",
        "meta_object_id": "2015-014A",
        "meta_epoch": "2025-12-20T12:31:14.382336",
        "meta_mean_motion": 15.44211732,
        "meta_eccentricity": 0.0005438,
        "meta_inclination": 97.6792,
        "meta_ra_of_asc_node": 329.2991,
        "meta_arg_of_pericenter": 109.5734,
        "meta_mean_anomaly": 250.6101,
        "meta_ephemeris_type": 0,
        "meta_classification_type": "U",
        "meta_norad_cat_id": 40536,
        "meta_element_set_no": 999,
        "meta_rev_at_epoch": 59415,
        "meta_bstar": 0.00029055,
        "meta_mean_motion_dot": 0.00013256,
        "meta_mean_motion_ddot": 0,
        "tle_line1": "1 40536U 15014A   25354.52169424  .00013256  00000+0  29055-3 0  9991",
        "tle_line2": "2 40536  97.6792 329.2991 0005438 109.5734 250.6101 15.44211732594153"
      },
      "geometry": {
        "type": "Point",
        "coordinates": [
          65.08176710356662,
          -82.27905494218757
        ]
      }
    },
    {
      "type": "Feature",
      "properties": {
        "norad_id": 40697,
        "name": "SENTINEL-2A",
        "group": "resource",
        "lat": 80.07442763335968,
        "lon": 7.55417037774767,
        "alt_km": 780.8410484606347,
        "timestamp": "2025-12-20T16:47:35.948633+00:00",
        "meta_object_name": "SENTINEL-2A",
        "meta_object_id": "2015-028A",
        "meta_epoch": "2025-12-20T11:21:45.560736",
        "meta_mean_motion": 14.30808851,
        "meta_eccentricity": 0.0001081,
        "meta_inclination": 98.5745,
        "meta_ra_of_asc_node": 66.8975,
        "meta_arg_of_pericenter": 87.9069,
        "meta_mean_anomaly": 272.2237,
        "meta_ephemeris_type": 0,
        "meta_classification_type": "U",
        "meta_norad_cat_id": 40697,
        "meta_element_set_no": 999,
        "meta_rev_at_epoch": 54817,
        "meta_bstar": 0.00015155,
        "meta_mean_motion_dot": 3.54e-06,
        "meta_mean_motion_ddot": 0,
        "tle_line1": "1 40697U 15028A   25354.47344399  .00000354  00000+0  15155-3 0  9995",
        "tle_line2": "2 40697  98.5745  66.8975 0001081  87.9069 272.2237 14.30808851548174"
      },
      "geometry": {
        "type": "Point",
        "coordinates": [
          7.55417037774767,
          80.07442763335968
        ]
      }
    },
    {
      "type": "Feature",
      "properties": {
        "norad_id": 40701,
        "name": "GAOFEN-8",
        "group": "resource",
        "lat": -22.121583284021117,
        "lon": 176.37770915310412,
        "alt_km": 460.7537641892468,
        "timestamp": "2025-12-20T16:47:35.948643+00:00",
        "meta_object_name": "GAOFEN-8",
        "meta_object_id": "2015-030A",
        "meta_epoch": "2025-12-20T12:12:29.887200",
        "meta_mean_motion": 15.38800517,
        "meta_eccentricity": 0.0011961,
        "meta_inclination": 97.6902,
        "meta_ra_of_asc_node": 173.0286,
        "meta_arg_of_pericenter": 112.2877,
        "meta_mean_anomaly": 247.9637,
        "meta_ephemeris_type": 0,
        "meta_classification_type": "U",
        "meta_norad_cat_id": 40701,
        "meta_element_set_no": 999,
        "meta_rev_at_epoch": 58390,
        "meta_bstar": 0.00048019,
        "meta_mean_motion_dot": 0.000184,
        "meta_mean_motion_ddot": 0,
        "tle_line1": "1 40701U 15030A   25354.50867925  .00018400  00000+0  48019-3 0  9999",
        "tle_line2": "2 40701  97.6902 173.0286 0011961 112.2877 247.9637 15.38800517583901"
      },
      "geometry": {
        "type": "Point",
        "coordinates": [
          176.37770915310412,
          -22.121583284021117
        ]
      }
    },
    {
      "type": "Feature",
      "properties": {
        "norad_id": 40718,
        "name": "CARBONITE 1 (CBNT-1)",
        "group": "resource",
        "lat": 69.4616437668503,
        "lon": 16.385749954850617,
        "alt_km": 606.5830877479711,
        "timestamp": "2025-12-20T16:47:35.948653+00:00",
        "meta_object_name": "CARBONITE 1 (CBNT-1)",
        "meta_object_id": "2015-032D",
        "meta_epoch": "2025-12-20T11:26:38.903424",
        "meta_mean_motion": 14.82779479,
        "meta_eccentricity": 0.0014989,
        "meta_inclination": 97.6395,
        "meta_ra_of_asc_node": 175.1795,
        "meta_arg_of_pericenter": 156.1672,
        "meta_mean_anomaly": 204.0239,
        "meta_ephemeris_type": 0,
        "meta_classification_type": "U",
        "meta_norad_cat_id": 40718,
        "meta_element_set_no": 999,
        "meta_rev_at_epoch": 56285,
        "meta_bstar": 0.00027823,
        "meta_mean_motion_dot": 2.203e-05,
        "meta_mean_motion_ddot": 0,
        "tle_line1": "1 40718U 15032D   25354.47683916  .00002203  00000+0  27823-3 0  9995",
        "tle_line2": "2 40718  97.6395 175.1795 0014989 156.1672 204.0239 14.82779479562859"
      },
      "geometry": {
        "type": "Point",
        "coordinates": [
          16.385749954850617,
          69.4616437668503
        ]
      }
    },
    {
      "type": "Feature",
      "properties": {
        "norad_id": 40878,
        "name": "YAOGAN-27",
        "group": "resource",
        "lat": 74.5009259979852,
        "lon": -56.037840621705605,
        "alt_km": 1198.3087388148251,
        "timestamp": "2025-12-20T16:47:35.948664+00:00",
        "meta_object_name": "YAOGAN-27",
        "meta_object_id": "2015-040A",
        "meta_epoch": "2025-12-20T12:44:53.235744",
        "meta_mean_motion": 13.16060055,
        "meta_eccentricity": 0.000759,
        "meta_inclination": 100.1006,
        "meta_ra_of_asc_node": 343.7988,
        "meta_arg_of_pericenter": 267.7113,
        "meta_mean_anomaly": 92.3131,
        "meta_ephemeris_type": 0,
        "meta_classification_type": "U",
        "meta_norad_cat_id": 40878,
        "meta_element_set_no": 999,
        "meta_rev_at_epoch": 49416,
        "meta_bstar": -0.00086647,
        "meta_mean_motion_dot": -3.71e-06,
        "meta_mean_motion_ddot": 0,
        "tle_line1": "1 40878U 15040A   25354.53117171 -.00000371  00000+0 -86647-3 0  9998",
        "tle_line2": "2 40878 100.1006 343.7988 0007590 267.7113  92.3131 13.16060055494167"
      },
      "geometry": {
        "type": "Point",
        "coordinates": [
          -56.037840621705605,
          74.5009259979852
        ]
      }
    },
    {
      "type": "Feature",
      "properties": {
        "norad_id": 40894,
        "name": "GAOFEN-9 01",
        "group": "resource",
        "lat": 20.315059168510786,
        "lon": 30.457746556889962,
        "alt_km": 602.671537313362,
        "timestamp": "2025-12-20T16:47:35.948674+00:00",
        "meta_object_name": "GAOFEN-9 01",
        "meta_object_id": "2015-047A",
        "meta_epoch": "2025-12-20T13:27:42.199776",
        "meta_mean_motion": 14.82439866,
        "meta_eccentricity": 0.0027757,
        "meta_inclination": 97.6532,
        "meta_ra_of_asc_node": 33.1783,
        "meta_arg_of_pericenter": 9.1586,
        "meta_mean_anomaly": 351.0128,
        "meta_ephemeris_type": 0,
        "meta_classification_type": "U",
        "meta_norad_cat_id": 40894,
        "meta_element_set_no": 999,
        "meta_rev_at_epoch": 55372,
        "meta_bstar": 0.00010557,
        "meta_mean_motion_dot": 8e-06,
        "meta_mean_motion_ddot": 0,
        "tle_line1": "1 40894U 15047A   25354.56090509  .00000800  00000+0  10557-3 0  9993",
        "tle_line2": "2 40894  97.6532  33.1783 0027757   9.1586 351.0128 14.82439866553724"
      },
      "geometry": {
        "type": "Point",
        "coordinates": [
          30.457746556889962,
          20.315059168510786
        ]
      }
    }
  ]
}